{
  "type": "FeatureCollection",
  "features": [
    {
      "type": "Feature",
      "properties": {
        "norad_id": 66369,
        "name": "STARLINK-35795",
        "group": "last-30-days",
        "lat": 11.553243274826105,
        "lon": 137.89067091566102,
        "alt_km": 344.9877718856915,
        "timestamp": "2025-12-02T07:10:07.865244+00:00",
        "meta_object_name": "STARLINK-35795",
        "meta_object_id": "2025-254X",
        "meta_epoch": "2025-12-01T12:11:16.281312",
        "meta_mean_motion": 15.74277166,
        "meta_eccentricity": 0.00013549,
        "meta_inclination": 53.1574,
        "meta_ra_of_asc_node": 330.635,
        "meta_arg_of_pericenter": 76.8176,
        "meta_mean_anomaly": 283.2995,
        "meta_ephemeris_type": 0,
        "meta_classification_type": "U",
        "meta_norad_cat_id": 66369,
        "meta_element_set_no": 999,
        "meta_rev_at_epoch": 391,
        "meta_bstar": 0.0014031395,
        "meta_mean_motion_dot": 0.00210891,
        "meta_mean_motion_ddot": 0,
        "tle_line1": "1 66369U 25254X   25335.50782733  .00210891  00000+0  14031-2 0  9992",
        "tle_line2": "2 66369  53.1574 330.6350 0001354  76.8176 283.2995 15.74277166  3912"
      },
      "geometry": {
        "type": "Point",
        "coordinates": [
          137.89067091566102,
          11.553243274826105
        ]
      }
    },
    {
      "type": "Feature",
      "properties": {
        "norad_id": 66370,
        "name": "STARLINK-35824",
        "group": "last-30-days",
        "lat": 8.446339718187911,
        "lon": 140.30736941365484,
        "alt_km": 345.2295976689329,
        "timestamp": "2025-12-02T07:10:07.865255+00:00",
        "meta_object_name": "STARLINK-35824",
        "meta_object_id": "2025-254Y",
        "meta_epoch": "2025-12-01T13:41:43.102464",
        "meta_mean_motion": 15.74302208,
        "meta_eccentricity": 0.00014941,
        "meta_inclination": 53.1574,
        "meta_ra_of_asc_node": 330.3159,
        "meta_arg_of_pericenter": 81.032,
        "meta_mean_anomaly": 279.0869,
        "meta_ephemeris_type": 0,
        "meta_classification_type": "U",
        "meta_norad_cat_id": 66370,
        "meta_element_set_no": 999,
        "meta_rev_at_epoch": 392,
        "meta_bstar": 0.0017428246,
        "meta_mean_motion_dot": 0.00264061,
        "meta_mean_motion_ddot": 0,
        "tle_line1": "1 66370U 25254Y   25335.57063776  .00264061  00000+0  17428-2 0  9991",
        "tle_line2": "2 66370  53.1574 330.3159 0001494  81.0320 279.0869 15.74302208  3922"
      },
      "geometry": {
        "type": "Point",
        "coordinates": [
          140.30736941365484,
          8.446339718187911
        ]
      }
    },
    {
      "type": "Feature",
      "properties": {
        "norad_id": 66371,
        "name": "STARLINK-35804",
        "group": "last-30-days",
        "lat": 5.858750128877959,
        "lon": 142.2802175624672,
        "alt_km": 345.76372051420003,
        "timestamp": "2025-12-02T07:10:07.865267+00:00",
        "meta_object_name": "STARLINK-35804",
        "meta_object_id": "2025-254Z",
        "meta_epoch": "2025-12-01T19:46:26.547168",
        "meta_mean_motion": 15.74244541,
        "meta_eccentricity": 0.0001594,
        "meta_inclination": 53.1569,
        "meta_ra_of_asc_node": 329.0504,
        "meta_arg_of_pericenter": 119.2531,
        "meta_mean_anomaly": 240.8649,
        "meta_ephemeris_type": 0,
        "meta_classification_type": "U",
        "meta_norad_cat_id": 66371,
        "meta_element_set_no": 999,
        "meta_rev_at_epoch": 396,
        "meta_bstar": 0.001183,
        "meta_mean_motion_dot": 0.00176725,
        "meta_mean_motion_ddot": 0,
        "tle_line1": "1 66371U 25254Z   25335.82391837  .00176725  00000+0  11830-2 0  9992",
        "tle_line2": "2 66371  53.1569 329.0504 0001594 119.2531 240.8649 15.74244541  3966"
      },
      "geometry": {
        "type": "Point",
        "coordinates": [
          142.2802175624672,
          5.858750128877959
        ]
      }
    },
    {
      "type": "Feature",
      "properties": {
        "norad_id": 66372,
        "name": "STARLINK-35821",
        "group": "last-30-days",
        "lat": 7.211473561952575,
        "lon": 141.2529918218705,
        "alt_km": 345.9070960669542,
        "timestamp": "2025-12-02T07:10:07.865277+00:00",
        "meta_object_name": "STARLINK-35821",
        "meta_object_id": "2025-254AA",
        "meta_epoch": "2025-12-01T12:09:48.911040",
        "meta_mean_motion": 15.74237471,
        "meta_eccentricity": 0.00016636,
        "meta_inclination": 53.1575,
        "meta_ra_of_asc_node": 330.6291,
        "meta_arg_of_pericenter": 89.1847,
        "meta_mean_anomaly": 270.9363,
        "meta_ephemeris_type": 0,
        "meta_classification_type": "U",
        "meta_norad_cat_id": 66372,
        "meta_element_set_no": 999,
        "meta_rev_at_epoch": 391,
        "meta_bstar": 0.00091951412,
        "meta_mean_motion_dot": 0.00136526,
        "meta_mean_motion_ddot": 0,
        "tle_line1": "1 66372U 25254AA  25335.50681610  .00136526  00000+0  91951-3 0  9997",
        "tle_line2": "2 66372  53.1575 330.6291 0001663  89.1847 270.9363 15.74237471  3913"
      },
      "geometry": {
        "type": "Point",
        "coordinates": [
          141.2529918218705,
          7.211473561952575
        ]
      }
    },
    {
      "type": "Feature",
      "properties": {
        "norad_id": 66373,
        "name": "STARLINK-35809",
        "group": "last-30-days",
        "lat": 3.827712071599384,
        "lon": 143.81190529752735,
        "alt_km": 345.5278959805364,
        "timestamp": "2025-12-02T07:10:07.865287+00:00",
        "meta_object_name": "STARLINK-35809",
        "meta_object_id": "2025-254AB",
        "meta_epoch": "2025-12-01T13:40:15.462624",
        "meta_mean_motion": 15.74308525,
        "meta_eccentricity": 0.00014362,
        "meta_inclination": 53.1571,
        "meta_ra_of_asc_node": 330.3085,
        "meta_arg_of_pericenter": 103.7531,
        "meta_mean_anomaly": 256.3648,
        "meta_ephemeris_type": 0,
        "meta_classification_type": "U",
        "meta_norad_cat_id": 66373,
        "meta_element_set_no": 999,
        "meta_rev_at_epoch": 392,
        "meta_bstar": 0.0018224053,
        "meta_mean_motion_dot": 0.0027664,
        "meta_mean_motion_ddot": 0,
        "tle_line1": "1 66373U 25254AB  25335.56962341  .00276640  00000+0  18224-2 0  9990",
        "tle_line2": "2 66373  53.1571 330.3085 0001436 103.7531 256.3648 15.74308525  3923"
      },
      "geometry": {
        "type": "Point",
        "coordinates": [
          143.81190529752735,
          3.827712071599384
        ]
      }
    },
    {
      "type": "Feature",
      "properties": {
        "norad_id": 66374,
        "name": "STARLINK-35831",
        "group": "last-30-days",
        "lat": 2.7628010460708228,
        "lon": 144.6108249007345,
        "alt_km": 347.0243572724594,
        "timestamp": "2025-12-02T07:10:07.865300+00:00",
        "meta_object_name": "STARLINK-35831",
        "meta_object_id": "2025-254AC",
        "meta_epoch": "2025-12-01T16:42:37.535328",
        "meta_mean_motion": 15.74228022,
        "meta_eccentricity": 0.000169,
        "meta_inclination": 53.157,
        "meta_ra_of_asc_node": 329.6757,
        "meta_arg_of_pericenter": 76.9524,
        "meta_mean_anomaly": 283.1685,
        "meta_ephemeris_type": 0,
        "meta_classification_type": "U",
        "meta_norad_cat_id": 66374,
        "meta_element_set_no": 999,
        "meta_rev_at_epoch": 394,
        "meta_bstar": 0.00099838,
        "meta_mean_motion_dot": 0.00148441,
        "meta_mean_motion_ddot": 0,
        "tle_line1": "1 66374U 25254AC  25335.69626777  .00148441  00000+0  99838-3 0  9993",
        "tle_line2": "2 66374  53.1570 329.6757 0001690  76.9524 283.1685 15.74228022  3949"
      },
      "geometry": {
        "type": "Point",
        "coordinates": [
          144.6108249007345,
          2.7628010460708228
        ]
      }
    },
    {
      "type": "Feature",
      "properties": {
        "norad_id": 66375,
        "name": "STARLINK-35826",
        "group": "last-30-days",
        "lat": 1.01403574787567,
        "lon": 145.92011866550934,
        "alt_km": 346.364023932264,
        "timestamp": "2025-12-02T07:10:07.865311+00:00",
        "meta_object_name": "STARLINK-35826",
        "meta_object_id": "2025-254AD",
        "meta_epoch": "2025-12-01T16:42:08.942112",
        "meta_mean_motion": 15.7426627,
        "meta_eccentricity": 0.0003156,
        "meta_inclination": 53.1569,
        "meta_ra_of_asc_node": 329.674,
        "meta_arg_of_pericenter": 90.1085,
        "meta_mean_anomaly": 270.0297,
        "meta_ephemeris_type": 0,
        "meta_classification_type": "U",
        "meta_norad_cat_id": 66375,
        "meta_element_set_no": 999,
        "meta_rev_at_epoch": 394,
        "meta_bstar": 0.0019874,
        "meta_mean_motion_dot": 0.00302136,
        "meta_mean_motion_ddot": 0,
        "tle_line1": "1 66375U 25254AD  25335.69593683  .00302136  00000+0  19874-2 0  9997",
        "tle_line2": "2 66375  53.1569 329.6740 0003156  90.1085 270.0297 15.74266270  3940"
      },
      "geometry": {
        "type": "Point",
        "coordinates": [
          145.92011866550934,
          1.01403574787567
        ]
      }
    }
  ]
}